{
  "norad_id": 62334,
  "name": "PIESAT-2 10",
  "history": [
    {
      "epoch": "2026-03-26T16:16:09.714144",
      "apogee_km": 526.8654890628959,
      "perigee_km": 524.7704148931689,
      "latitude_deg": 65.96044196587087,
      "longitude_deg": -73.52253984007984,
      "semi_major_axis_km": 6903.954951978032,
      "eccentricity": 0.00015173,
      "inclination_deg": 97.531,
      "raan_deg": 34.621,
      "arg_perigee_deg": 80.6268,
      "mean_anomaly_deg": 279.5134,
      "mean_motion_rev_day": 15.13407349
    }
  ]
}